<!doctype html>

<html>

<head>

<title>TLE for NORAD Catalog Number 44247</title>

</head>

<body>

<pre>
STARLINK-33             
1 44247U 19029N   19301.92695135  .00001667  00000-0  13384-3 0  9998
2 44247  53.0011 183.5507 0002311 107.0160 253.1081 15.05496399 23145

</pre>
	
</body>

</html>
